0 FENGYUN 1C DEB
1 29827U 99025DV  13281.30288432  .00000310  00000-0  17519-3 0   449
2 29827 098.8816 305.2690 0027509 159.6496 261.8805 14.17151488348126
0 FENGYUN 1C DEB
1 29827U 99025DV  13283.36114140  .00000378  00000-0  20892-3 0   454
2 29827 098.8813 307.3250 0027597 153.9140 322.4570 14.17153749348415
0 FENGYUN 1C DEB
1 29827U 99025DV  13285.74938884  .00000345  00000-0  19267-3 0   466
2 29827 098.8807 309.7107 0027667 147.3549 266.4564 14.17155770348756
0 FENGYUN 1C DEB
1 29827U 99025DV  13287.79721396  .00000433  00000-0  23590-3 0   474
2 29827 098.8802 311.7563 0027726 141.6957 273.7914 14.17157926349044
0 FENGYUN 1C DEB
1 29827U 99025DV  13290.35290793  .00000446  00000-0  24235-3 0   484
2 29827 098.8798 314.3087 0027782 134.6630 352.1030 14.17160652349401
0 FENGYUN 1C DEB
1 29827U 99025DV  13292.54855556  .00000413  00000-0  22612-3 0   493
2 29827 098.8798 316.5013 0027817 128.6408 033.5721 14.17163140349715
0 FENGYUN 1C DEB
1 29827U 99025DV  13294.78696896  .00000518  00000-0  27795-3 0   506
2 29827 098.8798 318.7366 0027846 122.4591 293.2854 14.17164938350032
